CUBEBUG-2 (LO-74)       
1 39440U 13066AA  26156.80918561  .00005560  00000+0  51354-3 0  9990
2 39440  97.8908 105.7402 0059434  65.9901 294.7524 14.93668030675299
FUNCUBE-1 (AO-73)       
1 39444U 13066AE  26156.85315166  .00009118  00000+0  56727-3 0  9993
2 39444  97.8279 128.0639 0034668 240.7945 118.9814 15.09352794677956
UWE-3                   
1 39446U 13066AG  26156.85248530  .00005174  00000+0  44473-3 0  9998
2 39446  97.8697 112.8515 0049170 359.4628   0.6532 14.96934199675880
UNISAT-6                
1 40012U 14033C   26156.70319073  .00004032  00000+0  43462-3 0  9998
2 40012  97.7873 309.6189 0046454 106.0537 254.5803 14.88181134644450
DUCHIFAT-1              
1 40021U 14033M   26156.43696292  .00091631  00000+0  10321-2 0  9997
2 40021  98.0469 213.9698 0004709 135.9979 224.1653 15.62240333653912
QB50P1                  
1 40025U 14033R   26156.28625995  .00008026  00000+0  39735-3 0  9993
2 40025  98.0971 166.5996 0007025 264.5036  95.5395 15.18070423651222
LILACSAT-2              
1 40908U 15049K   26157.04825478  .00022779  00000+0  39229-3 0  9993
2 40908  97.4656 193.4688 0005322 299.3702  60.7018 15.51071560594026
FOX-1A (AO-85)          
1 40967U 15058D   26156.81551415  .00003743  00000+0  33712-3 0  9990
2 40967  64.7765 314.3220 0129860  61.0355 300.3704 14.90911959111877
CAS-2T & KS-1Q          
1 41847U 16066G   26156.95086061  .00001904  00000+0  27433-3 0  9993
2 41847  98.3822 232.8151 0342350 163.4833 197.7849 14.44657072503176
RADFXSAT (FOX-1B)       
1 43017U 17073E   26156.36694126  .00009261  00000+0  40440-3 0  9992
2 43017  97.4713  23.8246 0151376  10.1794 350.2442 15.12507922463601
DIWATA-2B               
1 43678U 18084H   26157.16620266  .00002308  00000+0  18866-3 0  9993
2 43678  98.1161 352.8967 0011848 206.9450 153.1158 15.00397165414565
ES'HAIL 2               
1 43700U 18090A   26156.96978443  .00000157  00000+0  00000+0 0  9993
2 43700   0.0163  10.0454 0001948  98.8981 160.3681  1.00273228 27565
FOX-1CLIFF (AO-95)      
1 43770U 18099N   26156.08244416  .00010962  00000+0  42280-3 0  9993
2 43770  97.4389 216.3757 0009283  40.1659 320.0264 15.26442922411371
ITASAT                  
1 43786U 18099AE  26156.95462126  .00009740  00000+0  46858-3 0  9993
2 43786  97.4028 208.6916 0013278  38.6207 321.5974 15.18913401411201
JY1SAT (JO-97)          
1 43803U 18099AX  26156.08899900  .00015845  00000+0  49499-3 0  9998
2 43803  97.4134 218.8851 0004294 322.9431  37.1514 15.33253592411773
UWE-4                   
1 43880U 18111E   26156.04483588  .00034971  00000+0  73225-3 0  9990
2 43880  97.5859  83.8833 0007898  27.7618 332.4050 15.45332944408902
TIANYAN 01              
1 44881U 19093C   26157.14004045  .00000626  00000+0  76672-4 0  9991
2 44881  97.7530 229.6409 0014749 119.7827 240.4858 14.86499173349773
RS-44 & BREEZE-KM R/B   
1 44909U 19096E   26156.51249478  .00000011  00000+0 -45461-5 0  9998
2 44909  82.5219 347.4646 0217651 171.4058 189.0869 12.79748592300858
SALSAT                  
1 46495U 20068K   26156.50196863  .00008465  00000+0  29742-3 0  9991
2 46495  97.8853 158.8572 0009210 354.5258   5.5879 15.29623212313576
XW-3 (CAS-9)            
1 50466U 21131B   26157.15576031  .00000514  00000+0  17240-3 0  9994
2 50466  98.4977 249.6054 0005141 122.0019 238.1670 14.41347099233527
GREENCUBE (IO-117)      
1 53109U 22080E   26152.46502029 -.00000003  00000+0  00000+0 0  9996
2 53109  70.1435 303.7143 0008869 293.3663  66.6064  6.42583280 91055
UMKA 1 (RS40S)          
1 57172U 23091G   26156.90810101  .00008433  00000+0  38591-3 0  9993
2 57172  97.5050 215.6495 0013632 153.3125 206.8814 15.20685607162296
CUBESX-HSE 3 (RS42S)    
1 57178U 23091N   26156.93266302  .00018186  00000+0  60916-3 0  9992
2 57178  97.5091 222.3799 0012028 129.4224 230.8084 15.30923343162706
MONITOR-3 (RS58S)       
1 57180U 23091Q   26156.93253209  .00014764  00000+0  54795-3 0  9993
2 57180  97.5083 220.2977 0012921 135.7386 224.4889 15.27608657162577
MONITOR-4 (RS57S)       
1 57182U 23091S   26156.91224968  .00014141  00000+0  52343-3 0  9999
2 57182  97.5077 220.2479 0012908 136.1392 224.0874 15.27706119162578
MONITOR-2 (RS39S)       
1 57184U 23091U   26156.91529690  .00006607  00000+0  32018-3 0  9996
2 57184  97.5073 215.2716 0012203 145.9449 214.2571 15.18803066162241
SVYATOBOR 1 (RS60S)     
1 57187U 23091X   26156.91575691  .00012046  00000+0  46442-3 0  9991
2 57187  97.5089 220.6719 0010815 128.3872 231.8339 15.26419946162590
VIZARD-METEO (RS38S)    
1 57189U 23091Z   26156.94135751  .00022480  00000+0  64883-3 0  9997
2 57189  97.5091 226.2043 0008753 110.9917 249.2264 15.35659105162966
POLYTECH-UNIVERSE 3 (R*)
1 57191U 23091AB  26156.94398255  .00006195  00000+0  29830-3 0  9998
2 57191  97.5049 214.8048 0016090 163.1561 197.0211 15.19004187162247
UTMN 2 (RS27S)          
1 57203U 23091AP  26156.95642794  .00017368  00000+0  56736-3 0  9992
2 57203  97.5087 224.0242 0009460 117.1138 243.1069 15.31769519162823
